{"type": "FeatureCollection", "features": [ {"type": "Feature", "properties": {"norad_id": 31169, "name": "FENGYUN 1C DEB", "group": "fengyun-1c-debris", "lat": -24.87922603971581, "lon": 22.943683795536604, "alt_km": 772.4662910808966, "timestamp": "2025-12-17T23:38:07.134811+00:00", "meta": {"OBJECT_NAME": "FENGYUN 1C DEB", "OBJECT_ID": "1999-025BHX", "EPOCH": "2025-12-16T14:05:04.034400", "MEAN_MOTION": 14.26488337, "ECCENTRICITY": 0.00572472, "INCLINATION": 99.1569, "RA_OF_ASC_NODE": 17.1927, "ARG_OF_PERICENTER": 6.4565, "MEAN_ANOMALY": 353.7339, "EPHEMERIS_TYPE": 0, "CLASSIFICATION_TYPE": "U", "NORAD_CAT_ID": 31169, "ELEMENT_SET_NO": 999, "REV_AT_EPOCH": 57159, "BSTAR": 0.0016648589, "MEAN_MOTION_DOT": 4.034e-05, "MEAN_MOTION_DDOT": 0}, "tle": {"line1": "1 31169U 99025BHX 25350.58685225  .00004034  00000+0  16649-2 0  9999", "line2": "2 31169  99.1569  17.1927 0057247   6.4565 353.7339 14.26488337571595"}}, "geometry": {"type": "Point", "coordinates": [22.943683795536604, -24.87922603971581]}}, {"type": "Feature", "properties": {"norad_id": 31171, "name": "FENGYUN 1C DEB", "group": "fengyun-1c-debris", "lat": -45.114186707873785, "lon": 153.15100555729177, "alt_km": 752.3383341019116, "timestamp": "2025-12-17T23:38:07.134821+00:00", "meta": {"OBJECT_NAME": "FENGYUN 1C DEB", "OBJECT_ID": "1999-025BHZ", "EPOCH": "2025-12-15T05:22:36.058944", "MEAN_MOTION": 14.34900078, "ECCENTRICITY": 0.01539172, "INCLINATION": 98.0152, "RA_OF_ASC_NODE": 338.7192, "ARG_OF_PERICENTER": 309.1501, "MEAN_ANOMALY": 65.033, "EPHEMERIS_TYPE": 0, "CLASSIFICATION_TYPE": "U", "NORAD_CAT_ID": 31171, "ELEMENT_SET_NO": 999, "REV_AT_EPOCH": 95866, "BSTAR": 0.00277766, "MEAN_MOTION_DOT": 8.991e-05, "MEAN_MOTION_DDOT": 0}, "tle": {"line1": "1 31171U 99025BHZ 25349.22402846  .00008991  00000+0  27777-2 0  9997", "line2": "2 31171  98.0152 338.7192 0153917 309.1501  65.0330 14.34900078958665"}}, "geometry": {"type": "Point", "coordinates": [153.15100555729177, -45.114186707873785]}}, {"type": "Feature", "properties": {"norad_id": 31172, "name": "FENGYUN 1C DEB", "group": "fengyun-1c-debris", "lat": 60.8044278900876, "lon": -19.075427056846163, "alt_km": 884.8459156494482, "timestamp": "2025-12-17T23:38:07.134831+00:00", "meta": {"OBJECT_NAME": "FENGYUN 1C DEB", "OBJECT_ID": "1999-025BJA", "EPOCH": "2025-12-15T17:39:37.846944", "MEAN_MOTION": 14.315165, "ECCENTRICITY": 0.01480598, "INCLINATION": 98.4249, "RA_OF_ASC_NODE": 354.1225, "ARG_OF_PERICENTER": 259.5818, "MEAN_ANOMALY": 98.8651, "EPHEMERIS_TYPE": 0, "CLASSIFICATION_TYPE": "U", "NORAD_CAT_ID": 31172, "ELEMENT_SET_NO": 999, "REV_AT_EPOCH": 97669, "BSTAR": 0.00015412493, "MEAN_MOTION_DOT": 4.15e-06, "MEAN_MOTION_DDOT": 0}, "tle": {"line1": "1 31172U 99025BJA 25349.73585471  .00000415  00000+0  15412-3 0  9997", "line2": "2 31172  98.4249 354.1225 0148059 259.5818  98.8651 14.31516500976699"}}, "geometry": {"type": "Point", "coordinates": [-19.075427056846163, 60.8044278900876]}}, {"type": "Feature", "properties": {"norad_id": 31175, "name": "FENGYUN 1C DEB", "group": "fengyun-1c-debris", "lat": 34.59151247784294, "lon": 178.07611606211427, "alt_km": 637.4193856575012, "timestamp": "2025-12-17T23:38:07.134841+00:00", "meta": {"OBJECT_NAME": "FENGYUN 1C DEB", "OBJECT_ID": "1999-025BJD", "EPOCH": "2025-12-12T17:59:18.181536", "MEAN_MOTION": 14.60068253, "ECCENTRICITY": 0.00743425, "INCLINATION": 98.3983, "RA_OF_ASC_NODE": 346.9248, "ARG_OF_PERICENTER": 165.4313, "MEAN_ANOMALY": 194.9054, "EPHEMERIS_TYPE": 0, "CLASSIFICATION_TYPE": "U", "NORAD_CAT_ID": 31175, "ELEMENT_SET_NO": 999, "REV_AT_EPOCH": 65639, "BSTAR": 0.0058463227, "MEAN_MOTION_DOT": 0.00029271, "MEAN_MOTION_DDOT": 0}, "tle": {"line1": "1 31175U 99025BJD 25346.74951599  .00029271  00000+0  58463-2 0  9999", "line2": "2 31175  98.3983 346.9248 0074342 165.4313 194.9054 14.60068253656394"}}, "geometry": {"type": "Point", "coordinates": [178.07611606211427, 34.59151247784294]}}, {"type": "Feature", "properties": {"norad_id": 31177, "name": "FENGYUN 1C DEB", "group": "fengyun-1c-debris", "lat": 80.5084207536806, "lon": -162.3151942219486, "alt_km": 1208.3579157530348, "timestamp": "2025-12-17T23:38:07.134851+00:00", "meta": {"OBJECT_NAME": "FENGYUN 1C DEB", "OBJECT_ID": "1999-025BJF", "EPOCH": "2025-12-08T17:24:07.966080", "MEAN_MOTION": 13.622528, "ECCENTRICITY": 0.0310599, "INCLINATION": 98.7576, "RA_OF_ASC_NODE": 256.5653, "ARG_OF_PERICENTER": 324.298, "MEAN_ANOMALY": 91.0785, "EPHEMERIS_TYPE": 0, "CLASSIFICATION_TYPE": "U", "NORAD_CAT_ID": 31177, "ELEMENT_SET_NO": 999, "REV_AT_EPOCH": 66157, "BSTAR": 0.0076571, "MEAN_MOTION_DOT": 8.152e-05, "MEAN_MOTION_DDOT": 0}, "tle": {"line1": "1 31177U 99025BJF 25342.72509220  .00008152  00000+0  76571-2 0  9990", "line2": "2 31177  98.7576 256.5653 0310599 324.2980  91.0785 13.62252800661574"}}, "geometry": {"type": "Point", "coordinates": [-162.3151942219486, 80.5084207536806]}}, {"type": "Feature", "properties": {"norad_id": 31178, "name": "FENGYUN 1C DEB", "group": "fengyun-1c-debris", "lat": -26.55176729496792, "lon": 169.82647978747616, "alt_km": 828.4450860813904, "timestamp": "2025-12-17T23:38:07.134862+00:00", "meta": {"OBJECT_NAME": "FENGYUN 1C DEB", "OBJECT_ID": "1999-025BJG", "EPOCH": "2025-12-16T17:57:02.712384", "MEAN_MOTION": 14.22247622, "ECCENTRICITY": 0.01258808, "INCLINATION": 99.5126, "RA_OF_ASC_NODE": 353.2992, "ARG_OF_PERICENTER": 304.2704, "MEAN_ANOMALY": 54.6602, "EPHEMERIS_TYPE": 0, "CLASSIFICATION_TYPE": "U", "NORAD_CAT_ID": 31178, "ELEMENT_SET_NO": 999, "REV_AT_EPOCH": 95872, "BSTAR": 0.0015905015, "MEAN_MOTION_DOT": 3.779e-05, "MEAN_MOTION_DDOT": 0}, "tle": {"line1": "1 31178U 99025BJG 25350.74794806  .00003779  00000+0  15905-2 0  9992", "line2": "2 31178  99.5126 353.2992 0125880 304.2704  54.6602 14.22247622958727"}}, "geometry": {"type": "Point", "coordinates": [169.82647978747616, -26.55176729496792]}}, {"type": "Feature", "properties": {"norad_id": 31179, "name": "FENGYUN 1C DEB", "group": "fengyun-1c-debris", "lat": -24.473265204139473, "lon": -172.37455664708094, "alt_km": 1049.5275213576815, "timestamp": "2025-12-17T23:38:07.134872+00:00", "meta": {"OBJECT_NAME": "FENGYUN 1C DEB", "OBJECT_ID": "1999-025BJH", "EPOCH": "2025-12-15T18:53:29.025600", "MEAN_MOTION": 13.91934403, "ECCENTRICITY": 0.02153501, "INCLINATION": 99.0197, "RA_OF_ASC_NODE": 9.6322, "ARG_OF_PERICENTER": 352.4784, "MEAN_ANOMALY": 7.3163, "EPHEMERIS_TYPE": 0, "CLASSIFICATION_TYPE": "U", "NORAD_CAT_ID": 31179, "ELEMENT_SET_NO": 999, "REV_AT_EPOCH": 61983, "BSTAR": 0.00086484181, "MEAN_MOTION_DOT": 1.289e-05, "MEAN_MOTION_DDOT": 0}, "tle": {"line1": "1 31179U 99025BJH 25349.78714150  .00001289  00000+0  86484-3 0  9994", "line2": "2 31179  99.0197   9.6322 0215350 352.4784   7.3163 13.91934403619833"}}, "geometry": {"type": "Point", "coordinates": [-172.37455664708094, -24.473265204139473]}}, {"type": "Feature", "properties": {"norad_id": 31180, "name": "FENGYUN 1C DEB", "group": "fengyun-1c-debris", "lat": -79.33755164301951, "lon": -116.26649077051594, "alt_km": 1286.668850997532, "timestamp": "2025-12-17T23:38:07.134882+00:00", "meta": {"OBJECT_NAME": "FENGYUN 1C DEB", "OBJECT_ID": "1999-025BJJ", "EPOCH": "2025-12-17T15:24:16.361856", "MEAN_MOTION": 13.70346931, "ECCENTRICITY": 0.04981714, "INCLINATION": 99.2178, "RA_OF_ASC_NODE": 122.9999, "ARG_OF_PERICENTER": 47.1928, "MEAN_ANOMALY": 330.1168, "EPHEMERIS_TYPE": 0, "CLASSIFICATION_TYPE": "U", "NORAD_CAT_ID": 31180, "ELEMENT_SET_NO": 999, "REV_AT_EPOCH": 64134, "BSTAR": 0.00015670468, "MEAN_MOTION_DOT": 2.9e-06, "MEAN_MOTION_DDOT": 0}, "tle": {"line1": "1 31180U 99025BJJ 25351.64185604  .00000290  00000+0  15670-3 0  9990", "line2": "2 31180  99.2178 122.9999 0498171  47.1928 330.1168 13.70346931641340"}}, "geometry": {"type": "Point", "coordinates": [-116.26649077051594, -79.33755164301951]}}, {"type": "Feature", "properties": {"norad_id": 31181, "name": "FENGYUN 1C DEB", "group": "fengyun-1c-debris", "lat": -39.30860859214785, "lon": -162.8438389595329, "alt_km": 891.8193871080757, "timestamp": "2025-12-17T23:38:07.134892+00:00", "meta": {"OBJECT_NAME": "FENGYUN 1C DEB", "OBJECT_ID": "1999-025BJK", "EPOCH": "2025-12-16T00:49:27.083136", "MEAN_MOTION": 14.11897653, "ECCENTRICITY": 0.00479368, "INCLINATION": 98.7771, "RA_OF_ASC_NODE": 22.5146, "ARG_OF_PERICENTER": 65.4183, "MEAN_ANOMALY": 325.7974, "EPHEMERIS_TYPE": 0, "CLASSIFICATION_TYPE": "U", "NORAD_CAT_ID": 31181, "ELEMENT_SET_NO": 999, "REV_AT_EPOCH": 95814, "BSTAR": 0.00086139696, "MEAN_MOTION_DOT": 1.548e-05, "MEAN_MOTION_DDOT": 0}, "tle": {"line1": "1 31181U 99025BJK 25350.03434124  .00001548  00000+0  86140-3 0  9994", "line2": "2 31181  98.7771  22.5146 0047936  65.4183 325.7974 14.11897653958140"}}, "geometry": {"type": "Point", "coordinates": [-162.8438389595329, -39.30860859214785]}}, {"type": "Feature", "properties": {"norad_id": 31182, "name": "FENGYUN 1C DEB", "group": "fengyun-1c-debris", "lat": 60.750292658330594, "lon": -35.11996228398206, "alt_km": 829.3448356059935, "timestamp": "2025-12-17T23:38:07.134902+00:00", "meta": {"OBJECT_NAME": "FENGYUN 1C DEB", "OBJECT_ID": "1999-025BJL", "EPOCH": "2025-12-17T10:29:25.287072", "MEAN_MOTION": 14.14559703, "ECCENTRICITY": 0.00234665, "INCLINATION": 98.6819, "RA_OF_ASC_NODE": 340.1808, "ARG_OF_PERICENTER": 123.4909, "MEAN_ANOMALY": 31.1675, "EPHEMERIS_TYPE": 0, "CLASSIFICATION_TYPE": "U", "NORAD_CAT_ID": 31182, "ELEMENT_SET_NO": 999, "REV_AT_EPOCH": 96147, "BSTAR": 0.00031818865, "MEAN_MOTION_DOT": 5.7e-06, "MEAN_MOTION_DDOT": 0}, "tle": {"line1": "1 31182U 99025BJL 25351.43709823  .00000570  00000+0  31819-3 0  9998", "line2": "2 31182  98.6819 340.1808 0023466 123.4909  31.1675 14.14559703961470"}}, "geometry": {"type": "Point", "coordinates": [-35.11996228398206, 60.750292658330594]}}]}